PROBA-1                 
1 26958U 01049B   26073.60428690  .00003644  00000+0  23863-3 0  9998
2 26958  97.9638  78.8499 0057233  82.8223 277.9506 15.07062957329376
CUTE-1 (CO-55)          
1 27844U 03031E   26072.98964531  .00000396  00000+0  19032-3 0  9999
2 27844  98.6777  82.7351 0010745 101.3524 258.8862 14.24270180178127
CUBESAT XI-IV (CO-57)   
1 27848U 03031J   26073.56320221  .00000349  00000+0  17224-3 0  9999
2 27848  98.6807  83.0901 0010521 116.0304 244.1959 14.23565240177915
APRIZESAT 4             
1 35684U 09041D   26073.17327769  .00000971  00000+0  12270-3 0  9991
2 35684  98.1478 146.5880 0042068 269.6936  89.9457 14.83718681897270
APRIZESAT 3             
1 35686U 09041F   26073.39348355  .00001675  00000+0  14982-3 0  9995
2 35686  98.1899 222.1705 0062381  20.9503 339.4251 14.95917721902208
PROBA-2                 
1 36037U 09059B   26073.46589502  .00000325  00000+0  86337-4 0  9999
2 36037  98.2435 258.1325 0012601 208.6272 151.4235 14.54795127867754
APRIZESAT 5             
1 37792U 11044E   26073.35029463  .00001523  00000+0  20046-3 0  9993
2 37792  98.2404   3.7476 0051385 309.2158  50.4497 14.80873971784752
APRIZESAT 6             
1 37793U 11044F   26073.63232501  .00001143  00000+0  16847-3 0  9996
2 37793  98.2414 342.1877 0043987  30.0106  33.3244 14.76764940783197
PROBA-V                 
1 39159U 13021A   26073.51519488  .00000118  00000+0  69742-4 0  9994
2 39159  98.3512  56.8339 0005182  58.7323 301.4363 14.23575200667643
APRIZESAT 7             
1 39416U 13066A   26073.42208183  .00001855  00000+0  18963-3 0  9993
2 39416  97.7603  28.0796 0036374 163.1774 197.0660 14.91300666667106
APRIZESAT 8             
1 39425U 13066K   26073.36358328  .00001396  00000+0  15767-3 0  9992
2 39425  97.8123  22.2250 0044767 237.0568 122.6339 14.87439240665574
BUGSAT-1 (TITA)         
1 40014U 14033E   26073.59350737  .00007772  00000+0  42069-3 0  9993
2 40014  98.0424 160.6968 0029520 142.1948 218.1364 15.14570229641519
SAUDISAT 4              
1 40016U 14033G   26073.36501695  .00000887  00000+0  12374-3 0  9997
2 40016  97.7421 222.8625 0045395  23.7090 336.6200 14.79399685632054
APRIZESAT 9             
1 40018U 14033J   26073.58787670  .00001177  00000+0  18000-3 0  9997
2 40018  97.8889 209.1888 0067138 143.5962 216.9840 14.74086880629626
APRIZESAT 10            
1 40019U 14033K   26073.29331191  .00000963  00000+0  15881-3 0  9995
2 40019  97.9485 202.4601 0078224 216.0427 143.5491 14.70761983628300
TECHDEMOSAT-1 (TDS-1)   
1 40076U 14037H   26073.48978691  .00011873  00000+0  70111-3 0  9994
2 40076  98.3779  56.4617 0005190 215.7232 144.3649 15.11687900633919
TECHNOSAT               
1 42829U 17042E   26073.41703466  .00003803  00000+0  27602-3 0  9991
2 42829  97.4143 234.7831 0019062  60.2212 300.0908 15.04324760472458
FLYING LAPTOP           
1 42831U 17042G   26073.64602280  .00002846  00000+0  22923-3 0  9998
2 42831  97.4279 233.0997 0019632  79.8881 280.4557 15.00553935472272
HAWK-A                  
1 43765U 18099H   26073.60304555  .00010039  00000+0  41890-3 0  9995
2 43765  97.4048 127.1033 0034253 257.4118 102.3288 15.23319804398696
HAWK-B                  
1 43794U 18099AN  26073.58047509  .00008809  00000+0  38806-3 0  9992
2 43794  97.4095 126.6865 0031225 275.4873  84.2801 15.21613936398646
HAWK-C                  
1 43799U 18099AT  26073.58911206  .00011586  00000+0  43596-3 0  9999
2 43799  97.4025 127.5547 0040372 259.3820 100.2870 15.26510422399475
SALSAT                  
1 46495U 20068K   26073.51831201  .00012617  00000+0  46004-3 0  9996
2 46495  97.8858  70.9296 0008068 275.9056  84.1263 15.28293668300898
HAWK-2C                 
1 47502U 21006CT  26073.57045696  .00009230  00000+0  28833-3 0  9997
2 47502  97.2414 119.7917 0007493 167.8105 192.3321 15.33368638284992
HAWK-2A                 
1 47505U 21006CW  26073.57390868  .00009251  00000+0  28883-3 0  9992
2 47505  97.2456 120.4170 0007011 170.2878 189.8502 15.33387413284996
HAWK-2B                 
1 47508U 21006CZ  26073.37497467  .00008679  00000+0  27114-3 0  9995
2 47508  97.2332 118.7127 0007647 169.2741 190.8667 15.33380862284968
HAWK-3B                 
1 48931U 21059BE  26073.48347700  .00046305  00000+0  53016-3 0  9998
2 48931  97.6721 261.7642 0004926 318.8898  41.1987 15.61990894263039
HAWK-3C                 
1 48948U 21059BX  26073.61134579  .00050038  00000+0  57205-3 0  9991
2 48948  97.6870 267.4126 0005363 319.9921  40.0940 15.62009934263053
HAWK-3A                 
1 48957U 21059CG  26073.48306405  .00045086  00000+0  51632-3 0  9990
2 48957  97.6804 264.5573 0005044 318.4706  41.6167 15.61990239263037
HAWK-5C                 
1 52754U 22057Y   26073.37948190  .00025430  00000+0  49120-3 0  9990
2 52754  97.6452 227.2764 0005413  60.5056 299.6733 15.47770178211665
HAWK-5B                 
1 52756U 22057AA  26073.37935191  .00025983  00000+0  50183-3 0  9993
2 52756  97.6457 225.6165 0005238  54.8990 305.2750 15.47769669211663
HAWK-5A                 
1 52757U 22057AB  26073.37907711  .00025619  00000+0  49483-3 0  9998
2 52757  97.6458 226.4506 0005691  57.0598 303.1198 15.47769248211661
HAWK-6B                 
1 55324U 23011A   26073.59451001  .00007926  00000+0  34815-3 0  9996
2 55324  40.5094 183.4199 0001526  81.3606 278.7377 15.21982067173425
HAWK-6C                 
1 55326U 23011C   26073.59392781  .00009014  00000+0  39465-3 0  9993
2 55326  40.4872 180.2814 0001939  59.4019 300.6981 15.21986641173430
HAWK-6A                 
1 55327U 23011D   26073.59393055  .00007787  00000+0  34218-3 0  9995
2 55327  40.4978 181.8937 0001498  51.2057 308.8886 15.21981437173435
HAWK-7A                 
1 56191U 23054P   26073.60629333  .00008735  00000+0  33940-3 0  9990
2 56191  97.2830 323.3504 0003953  38.3121 321.8398 15.26285408162599
HAWK-7B                 
1 56193U 23054R   26073.60622177  .00008924  00000+0  34668-3 0  9999
2 56193  97.2862 321.5782 0003433  52.1460 308.0089 15.26285147162591
HAWK-7C                 
1 56200U 23054Y   26073.60610267  .00008806  00000+0  34215-3 0  9992
2 56200  97.2835 322.3777 0003298  42.4193 317.7300 15.26284824162591
